{"type": "FeatureCollection", "features": [ {"type": "Feature", "properties": {"norad_id": 66815, "name": "STARLINK-35985", "group": "last-30-days", "lat": 8.617233678449782, "lon": -95.08783419122638, "alt_km": 304.3973432784942, "timestamp": "2025-12-12T03:50:51.178293+00:00", "meta": {"OBJECT_NAME": "STARLINK-35985", "OBJECT_ID": "2025-278AA", "EPOCH": "2025-12-11T14:00:01.999872", "MEAN_MOTION": 15.90554025, "ECCENTRICITY": 0.00020602, "INCLINATION": 42.9977, "RA_OF_ASC_NODE": 259.1297, "ARG_OF_PERICENTER": 259.6796, "MEAN_ANOMALY": 47.041, "EPHEMERIS_TYPE": 0, "CLASSIFICATION_TYPE": "U", "NORAD_CAT_ID": 66815, "ELEMENT_SET_NO": 999, "REV_AT_EPOCH": 286, "BSTAR": -0.0046106343, "MEAN_MOTION_DOT": -0.01304424, "MEAN_MOTION_DDOT": 0}, "tle": {"line1": "1 66815U 25278AA  25345.58335648 -.01304424  00000+0 -46106-2 0  9999", "line2": "2 66815  42.9977 259.1297 0002060 259.6796  47.0410 15.90554025  2861"}}, "geometry": {"type": "Point", "coordinates": [-95.08783419122638, 8.617233678449782]}}, {"type": "Feature", "properties": {"norad_id": 66816, "name": "STARLINK-36098", "group": "last-30-days", "lat": 1.0890907662532339, "lon": -103.25062137484606, "alt_km": 305.18948443387035, "timestamp": "2025-12-12T03:50:51.178303+00:00", "meta": {"OBJECT_NAME": "STARLINK-36098", "OBJECT_ID": "2025-278AB", "EPOCH": "2025-12-11T14:00:01.999872", "MEAN_MOTION": 15.90476542, "ECCENTRICITY": 0.00019673, "INCLINATION": 42.9981, "RA_OF_ASC_NODE": 259.1579, "ARG_OF_PERICENTER": 261.2604, "MEAN_ANOMALY": 34.4862, "EPHEMERIS_TYPE": 0, "CLASSIFICATION_TYPE": "U", "NORAD_CAT_ID": 66816, "ELEMENT_SET_NO": 999, "REV_AT_EPOCH": 261, "BSTAR": -0.0045201872, "MEAN_MOTION_DOT": -0.01277139, "MEAN_MOTION_DDOT": 0}, "tle": {"line1": "1 66816U 25278AB  25345.58335648 -.01277139  00000+0 -45202-2 0  9998", "line2": "2 66816  42.9981 259.1579 0001967 261.2604  34.4862 15.90476542  2613"}}, "geometry": {"type": "Point", "coordinates": [-103.25062137484606, 1.0890907662532339]}}, {"type": "Feature", "properties": {"norad_id": 66817, "name": "STARLINK-35995", "group": "last-30-days", "lat": 4.601866945536806, "lon": -99.47722133420979, "alt_km": 304.78376529279285, "timestamp": "2025-12-12T03:50:51.178317+00:00", "meta": {"OBJECT_NAME": "STARLINK-35995", "OBJECT_ID": "2025-278AC", "EPOCH": "2025-12-11T14:00:01.999872", "MEAN_MOTION": 15.90527005, "ECCENTRICITY": 0.00019534, "INCLINATION": 42.9981, "RA_OF_ASC_NODE": 259.1449, "ARG_OF_PERICENTER": 259.984, "MEAN_ANOMALY": 40.8311, "EPHEMERIS_TYPE": 0, "CLASSIFICATION_TYPE": "U", "NORAD_CAT_ID": 66817, "ELEMENT_SET_NO": 999, "REV_AT_EPOCH": 277, "BSTAR": -0.0045439658, "MEAN_MOTION_DOT": -0.01286055, "MEAN_MOTION_DDOT": 0}, "tle": {"line1": "1 66817U 25278AC  25345.58335648 -.01286055  00000+0 -45440-2 0  9990", "line2": "2 66817  42.9981 259.1449 0001953 259.9840  40.8311 15.90527005  2779"}}, "geometry": {"type": "Point", "coordinates": [-99.47722133420979, 4.601866945536806]}}, {"type": "Feature", "properties": {"norad_id": 66818, "name": "STARLINK-35994", "group": "last-30-days", "lat": 3.060006647545294, "lon": -101.137966313696, "alt_km": 304.97563493720554, "timestamp": "2025-12-12T03:50:51.178328+00:00", "meta": {"OBJECT_NAME": "STARLINK-35994", "OBJECT_ID": "2025-278AD", "EPOCH": "2025-12-11T14:00:01.999872", "MEAN_MOTION": 15.90498801, "ECCENTRICITY": 0.00019197, "INCLINATION": 42.9982, "RA_OF_ASC_NODE": 259.1507, "ARG_OF_PERICENTER": 260.4594, "MEAN_ANOMALY": 38.1402, "EPHEMERIS_TYPE": 0, "CLASSIFICATION_TYPE": "U", "NORAD_CAT_ID": 66818, "ELEMENT_SET_NO": 999, "REV_AT_EPOCH": 277, "BSTAR": -0.0045304587, "MEAN_MOTION_DOT": -0.01280983, "MEAN_MOTION_DDOT": 0}, "tle": {"line1": "1 66818U 25278AD  25345.58335648 -.01280983  00000+0 -45305-2 0  9995", "line2": "2 66818  42.9982 259.1507 0001919 260.4594  38.1402 15.90498801  2773"}}, "geometry": {"type": "Point", "coordinates": [-101.137966313696, 3.060006647545294]}}, {"type": "Feature", "properties": {"norad_id": 66819, "name": "STARLINK-35989", "group": "last-30-days", "lat": 6.153253516407384, "lon": -97.79442738485228, "alt_km": 304.62187480200464, "timestamp": "2025-12-12T03:50:51.178339+00:00", "meta": {"OBJECT_NAME": "STARLINK-35989", "OBJECT_ID": "2025-278AE", "EPOCH": "2025-12-11T14:00:01.999872", "MEAN_MOTION": 15.90559391, "ECCENTRICITY": 0.00020047, "INCLINATION": 42.9983, "RA_OF_ASC_NODE": 259.1393, "ARG_OF_PERICENTER": 258.672, "MEAN_ANOMALY": 44.3756, "EPHEMERIS_TYPE": 0, "CLASSIFICATION_TYPE": "U", "NORAD_CAT_ID": 66819, "ELEMENT_SET_NO": 999, "REV_AT_EPOCH": 277, "BSTAR": -0.0045729568, "MEAN_MOTION_DOT": -0.01295275, "MEAN_MOTION_DDOT": 0}, "tle": {"line1": "1 66819U 25278AE  25345.58335648 -.01295275  00000+0 -45730-2 0  9998", "line2": "2 66819  42.9983 259.1393 0002004 258.6720  44.3756 15.90559391  2777"}}, "geometry": {"type": "Point", "coordinates": [-97.79442738485228, 6.153253516407384]}}, {"type": "Feature", "properties": {"norad_id": 66820, "name": "KOMPSAT-7", "group": "last-30-days", "lat": 77.74140090432014, "lon": 150.1966338177768, "alt_km": 566.689813078593, "timestamp": "2025-12-12T03:50:51.178355+00:00", "meta": {"OBJECT_NAME": "KOMPSAT-7", "OBJECT_ID": "2025-279A", "EPOCH": "2025-12-11T00:09:46.708704", "MEAN_MOTION": 14.98662486, "ECCENTRICITY": 0.00081984, "INCLINATION": 97.6407, "RA_OF_ASC_NODE": 290.9079, "ARG_OF_PERICENTER": 224.9199, "MEAN_ANOMALY": 135.1362, "EPHEMERIS_TYPE": 0, "CLASSIFICATION_TYPE": "U", "NORAD_CAT_ID": 66820, "ELEMENT_SET_NO": 999, "REV_AT_EPOCH": 139, "BSTAR": 0.00036088548, "MEAN_MOTION_DOT": 4.28e-05, "MEAN_MOTION_DDOT": 0}, "tle": {"line1": "1 66820U 25279A   25345.00679061  .00004280  00000+0  36089-3 0  9997", "line2": "2 66820  97.6407 290.9079 0008198 224.9199 135.1362 14.98662486  1393"}}, "geometry": {"type": "Point", "coordinates": [150.1966338177768, 77.74140090432014]}}, {"type": "Feature", "properties": {"norad_id": 66821, "name": "STARLINK-35966", "group": "last-30-days", "lat": -47.66594840640676, "lon": 176.92603657495675, "alt_km": 328.100514476243, "timestamp": "2025-12-12T03:50:51.178366+00:00", "meta": {"OBJECT_NAME": "STARLINK-35966", "OBJECT_ID": "2025-280A", "EPOCH": "2025-12-10T16:00:01.999584", "MEAN_MOTION": 15.87163122, "ECCENTRICITY": 0.00039131, "INCLINATION": 69.9939, "RA_OF_ASC_NODE": 204.7907, "ARG_OF_PERICENTER": 271.1294, "MEAN_ANOMALY": 158.5043, "EPHEMERIS_TYPE": 0, "CLASSIFICATION_TYPE": "U", "NORAD_CAT_ID": 66821, "ELEMENT_SET_NO": 999, "REV_AT_EPOCH": 256, "BSTAR": -0.0067612749, "MEAN_MOTION_DOT": -0.01557078, "MEAN_MOTION_DDOT": 0}, "tle": {"line1": "1 66821U 25280A   25344.66668981 -.01557078  00000+0 -67613-2 0  9997", "line2": "2 66821  69.9939 204.7907 0003913 271.1294 158.5043 15.87163122  2566"}}, "geometry": {"type": "Point", "coordinates": [176.92603657495675, -47.66594840640676]}}, {"type": "Feature", "properties": {"norad_id": 66822, "name": "STARLINK-35958", "group": "last-30-days", "lat": -46.027105121495964, "lon": 178.31004487958353, "alt_km": 327.973054060315, "timestamp": "2025-12-12T03:50:51.178376+00:00", "meta": {"OBJECT_NAME": "STARLINK-35958", "OBJECT_ID": "2025-280B", "EPOCH": "2025-12-10T16:00:01.999584", "MEAN_MOTION": 15.87203288, "ECCENTRICITY": 0.00039141, "INCLINATION": 69.9939, "RA_OF_ASC_NODE": 204.789, "ARG_OF_PERICENTER": 271.5252, "MEAN_ANOMALY": 159.7958, "EPHEMERIS_TYPE": 0, "CLASSIFICATION_TYPE": "U", "NORAD_CAT_ID": 66822, "ELEMENT_SET_NO": 999, "REV_AT_EPOCH": 256, "BSTAR": -0.006752443, "MEAN_MOTION_DOT": -0.0155802, "MEAN_MOTION_DDOT": 0}, "tle": {"line1": "1 66822U 25280B   25344.66668981 -.01558020  00000+0 -67524-2 0  9997", "line2": "2 66822  69.9939 204.7890 0003914 271.5252 159.7958 15.87203288  2563"}}, "geometry": {"type": "Point", "coordinates": [178.31004487958353, -46.027105121495964]}}, {"type": "Feature", "properties": {"norad_id": 66823, "name": "STARLINK-35957", "group": "last-30-days", "lat": -44.3123583510664, "lon": 179.65897078289794, "alt_km": 327.8727153709542, "timestamp": "2025-12-12T03:50:51.178386+00:00", "meta": {"OBJECT_NAME": "STARLINK-35957", "OBJECT_ID": "2025-280C", "EPOCH": "2025-12-10T16:00:01.999584", "MEAN_MOTION": 15.87244205, "ECCENTRICITY": 0.00039284, "INCLINATION": 69.9938, "RA_OF_ASC_NODE": 204.7867, "ARG_OF_PERICENTER": 271.3861, "MEAN_ANOMALY": 161.7087, "EPHEMERIS_TYPE": 0, "CLASSIFICATION_TYPE": "U", "NORAD_CAT_ID": 66823, "ELEMENT_SET_NO": 999, "REV_AT_EPOCH": 256, "BSTAR": -0.0067558235, "MEAN_MOTION_DOT": -0.01561515, "MEAN_MOTION_DDOT": 0}, "tle": {"line1": "1 66823U 25280C   25344.66668981 -.01561515  00000+0 -67558-2 0  9998", "line2": "2 66823  69.9938 204.7867 0003928 271.3861 161.7087 15.87244205  2566"}}, "geometry": {"type": "Point", "coordinates": [179.65897078289794, -44.3123583510664]}}, {"type": "Feature", "properties": {"norad_id": 66824, "name": "STARLINK-35896", "group": "last-30-days", "lat": -42.74779743645484, "lon": -179.18746560320483, "alt_km": 328.1114407516088, "timestamp": "2025-12-12T03:50:51.178396+00:00", "meta": {"OBJECT_NAME": "STARLINK-35896", "OBJECT_ID": "2025-280D", "EPOCH": "2025-12-10T18:00:02.000160", "MEAN_MOTION": 15.87016307, "ECCENTRICITY": 0.0003777, "INCLINATION": 69.9936, "RA_OF_ASC_NODE": 204.544, "ARG_OF_PERICENTER": 269.0036, "MEAN_ANOMALY": 281.9492, "EPHEMERIS_TYPE": 0, "CLASSIFICATION_TYPE": "U", "NORAD_CAT_ID": 66824, "ELEMENT_SET_NO": 999, "REV_AT_EPOCH": 258, "BSTAR": -0.0070024, "MEAN_MOTION_DOT": -0.01595429, "MEAN_MOTION_DDOT": 0}, "tle": {"line1": "1 66824U 25280D   25344.75002315 -.01595429  00000+0 -70024-2 0  9995", "line2": "2 66824  69.9936 204.5440 0003777 269.0036 281.9492 15.87016307  2587"}}, "geometry": {"type": "Point", "coordinates": [-179.18746560320483, -42.74779743645484]}}]}